{
  "type": "FeatureCollection",
  "features": [
    {
      "type": "Feature",
      "properties": {
        "norad_id": 66933,
        "name": "STARLINK-36157",
        "group": "last-30-days",
        "lat": 52.907749159004126,
        "lon": 74.34565086136372,
        "alt_km": 367.15725380480126,
        "timestamp": "2025-12-24T11:32:58.720559+00:00",
        "meta_object_name": "STARLINK-36157",
        "meta_object_id": "2025-286J",
        "meta_epoch": "2025-12-24T04:00:01.998720",
        "meta_mean_motion": 15.65696874,
        "meta_eccentricity": 0.0001545,
        "meta_inclination": 53.1593,
        "meta_ra_of_asc_node": 353.3078,
        "meta_arg_of_pericenter": 86.3451,
        "meta_mean_anomaly": 26.0444,
        "meta_ephemeris_type": 0,
        "meta_classification_type": "U",
        "meta_norad_cat_id": 66933,
        "meta_element_set_no": 999,
        "meta_rev_at_epoch": 382,
        "meta_bstar": -0.022505,
        "meta_mean_motion_dot": -0.02033445,
        "meta_mean_motion_ddot": 0,
        "tle_line1": "1 66933U 25286J   25358.16668980 -.02033445  00000+0 -22505-1 0  9994",
        "tle_line2": "2 66933  53.1593 353.3078 0001545  86.3451  26.0444 15.65696874  3826"
      },
      "geometry": {
        "type": "Point",
        "coordinates": [
          74.34565086136372,
          52.907749159004126
        ]
      }
    },
    {
      "type": "Feature",
      "properties": {
        "norad_id": 66934,
        "name": "STARLINK-36153",
        "group": "last-30-days",
        "lat": 53.064100597646885,
        "lon": 77.5270051406642,
        "alt_km": 367.1844485607344,
        "timestamp": "2025-12-24T11:32:58.720569+00:00",
        "meta_object_name": "STARLINK-36153",
        "meta_object_id": "2025-286K",
        "meta_epoch": "2025-12-24T04:00:01.998720",
        "meta_mean_motion": 15.65708261,
        "meta_eccentricity": 0.0001478,
        "meta_inclination": 53.1593,
        "meta_ra_of_asc_node": 353.3042,
        "meta_arg_of_pericenter": 84.6115,
        "meta_mean_anomaly": 29.6915,
        "meta_ephemeris_type": 0,
        "meta_classification_type": "U",
        "meta_norad_cat_id": 66934,
        "meta_element_set_no": 999,
        "meta_rev_at_epoch": 382,
        "meta_bstar": -0.022693,
        "meta_mean_motion_dot": -0.02049068,
        "meta_mean_motion_ddot": 0,
        "tle_line1": "1 66934U 25286K   25358.16668980 -.02049068  00000+0 -22693-1 0  9991",
        "tle_line2": "2 66934  53.1593 353.3042 0001478  84.6115  29.6915 15.65708261  3827"
      },
      "geometry": {
        "type": "Point",
        "coordinates": [
          77.5270051406642,
          53.064100597646885
        ]
      }
    },
    {
      "type": "Feature",
      "properties": {
        "norad_id": 66935,
        "name": "STARLINK-36127",
        "group": "last-30-days",
        "lat": 53.13497679330727,
        "lon": 80.72154327093857,
        "alt_km": 367.17366190547546,
        "timestamp": "2025-12-24T11:32:58.720581+00:00",
        "meta_object_name": "STARLINK-36127",
        "meta_object_id": "2025-286L",
        "meta_epoch": "2025-12-24T04:00:01.998720",
        "meta_mean_motion": 15.65703385,
        "meta_eccentricity": 0.0001493,
        "meta_inclination": 53.1594,
        "meta_ra_of_asc_node": 353.2997,
        "meta_arg_of_pericenter": 80.1952,
        "meta_mean_anomaly": 36.0279,
        "meta_ephemeris_type": 0,
        "meta_classification_type": "U",
        "meta_norad_cat_id": 66935,
        "meta_element_set_no": 999,
        "meta_rev_at_epoch": 382,
        "meta_bstar": -0.022627,
        "meta_mean_motion_dot": -0.02043493,
        "meta_mean_motion_ddot": 0,
        "tle_line1": "1 66935U 25286L   25358.16668980 -.02043493  00000+0 -22627-1 0  9995",
        "tle_line2": "2 66935  53.1594 353.2997 0001493  80.1952  36.0279 15.65703385  3821"
      },
      "geometry": {
        "type": "Point",
        "coordinates": [
          80.72154327093857,
          53.13497679330727
        ]
      }
    },
    {
      "type": "Feature",
      "properties": {
        "norad_id": 66936,
        "name": "STARLINK-36160",
        "group": "last-30-days",
        "lat": 53.12002481692163,
        "lon": 83.91719076266594,
        "alt_km": 367.19527345433835,
        "timestamp": "2025-12-24T11:32:58.720593+00:00",
        "meta_object_name": "STARLINK-36160",
        "meta_object_id": "2025-286M",
        "meta_epoch": "2025-12-24T04:00:01.998720",
        "meta_mean_motion": 15.65707498,
        "meta_eccentricity": 0.0001462,
        "meta_inclination": 53.1595,
        "meta_ra_of_asc_node": 353.2964,
        "meta_arg_of_pericenter": 79.1856,
        "meta_mean_anomaly": 38.949,
        "meta_ephemeris_type": 0,
        "meta_classification_type": "U",
        "meta_norad_cat_id": 66936,
        "meta_element_set_no": 999,
        "meta_rev_at_epoch": 382,
        "meta_bstar": -0.022642,
        "meta_mean_motion_dot": -0.02044978,
        "meta_mean_motion_ddot": 0,
        "tle_line1": "1 66936U 25286M   25358.16668980 -.02044978  00000+0 -22642-1 0  9992",
        "tle_line2": "2 66936  53.1595 353.2964 0001462  79.1856  38.9490 15.65707498  3829"
      },
      "geometry": {
        "type": "Point",
        "coordinates": [
          83.91719076266594,
          53.12002481692163
        ]
      }
    },
    {
      "type": "Feature",
      "properties": {
        "norad_id": 66937,
        "name": "STARLINK-36165",
        "group": "last-30-days",
        "lat": 53.01927864286334,
        "lon": 87.10142655953048,
        "alt_km": 367.1332207648493,
        "timestamp": "2025-12-24T11:32:58.720606+00:00",
        "meta_object_name": "STARLINK-36165",
        "meta_object_id": "2025-286N",
        "meta_epoch": "2025-12-24T04:00:01.998720",
        "meta_mean_motion": 15.6569992,
        "meta_eccentricity": 0.0001568,
        "meta_inclination": 53.1593,
        "meta_ra_of_asc_node": 353.292,
        "meta_arg_of_pericenter": 83.5213,
        "meta_mean_anomaly": 36.5337,
        "meta_ephemeris_type": 0,
        "meta_classification_type": "U",
        "meta_norad_cat_id": 66937,
        "meta_element_set_no": 999,
        "meta_rev_at_epoch": 382,
        "meta_bstar": -0.022542,
        "meta_mean_motion_dot": -0.02036635,
        "meta_mean_motion_ddot": 0,
        "tle_line1": "1 66937U 25286N   25358.16668980 -.02036635  00000+0 -22542-1 0  9993",
        "tle_line2": "2 66937  53.1593 353.2920 0001568  83.5213  36.5337 15.65699920  3827"
      },
      "geometry": {
        "type": "Point",
        "coordinates": [
          87.10142655953048,
          53.01927864286334
        ]
      }
    },
    {
      "type": "Feature",
      "properties": {
        "norad_id": 66938,
        "name": "STARLINK-36155",
        "group": "last-30-days",
        "lat": 52.83334049975418,
        "lon": 90.27161191825721,
        "alt_km": 367.244656897853,
        "timestamp": "2025-12-24T11:32:58.720616+00:00",
        "meta_object_name": "STARLINK-36155",
        "meta_object_id": "2025-286P",
        "meta_epoch": "2025-12-24T04:00:01.998720",
        "meta_mean_motion": 15.65702206,
        "meta_eccentricity": 0.0001459,
        "meta_inclination": 53.1592,
        "meta_ra_of_asc_node": 353.2874,
        "meta_arg_of_pericenter": 81.7734,
        "meta_mean_anomaly": 40.1995,
        "meta_ephemeris_type": 0,
        "meta_classification_type": "U",
        "meta_norad_cat_id": 66938,
        "meta_element_set_no": 999,
        "meta_rev_at_epoch": 382,
        "meta_bstar": -0.022588,
        "meta_mean_motion_dot": -0.02040303,
        "meta_mean_motion_ddot": 0,
        "tle_line1": "1 66938U 25286P   25358.16668980 -.02040303  00000+0 -22588-1 0  9991",
        "tle_line2": "2 66938  53.1592 353.2874 0001459  81.7734  40.1995 15.65702206  3825"
      },
      "geometry": {
        "type": "Point",
        "coordinates": [
          90.27161191825721,
          52.83334049975418
        ]
      }
    },
    {
      "type": "Feature",
      "properties": {
        "norad_id": 66939,
        "name": "STARLINK-36154",
        "group": "last-30-days",
        "lat": 52.213384384341836,
        "lon": 96.49351327260062,
        "alt_km": 367.2655963306106,
        "timestamp": "2025-12-24T11:32:58.720626+00:00",
        "meta_object_name": "STARLINK-36154",
        "meta_object_id": "2025-286Q",
        "meta_epoch": "2025-12-24T04:00:01.998720",
        "meta_mean_motion": 15.65696498,
        "meta_eccentricity": 0.0001576,
        "meta_inclination": 53.1595,
        "meta_ra_of_asc_node": 353.2794,
        "meta_arg_of_pericenter": 81.8384,
        "meta_mean_anomaly": 43.9698,
        "meta_ephemeris_type": 0,
        "meta_classification_type": "U",
        "meta_norad_cat_id": 66939,
        "meta_element_set_no": 999,
        "meta_rev_at_epoch": 382,
        "meta_bstar": -0.022505,
        "meta_mean_motion_dot": -0.0203343,
        "meta_mean_motion_ddot": 0,
        "tle_line1": "1 66939U 25286Q   25358.16668980 -.02033430  00000+0 -22505-1 0  9994",
        "tle_line2": "2 66939  53.1595 353.2794 0001576  81.8384  43.9698 15.65696498  3828"
      },
      "geometry": {
        "type": "Point",
        "coordinates": [
          96.49351327260062,
          52.213384384341836
        ]
      }
    }
  ]
}